[{"OBJECT_NAME":"STARLINK-34544","OBJECT_ID":"2025-152Z","EPOCH":"2026-03-09T13:49:52.320000","MEAN_MOTION":15.05666765,"ECCENTRICITY":0.000241,"INCLINATION":97.6018,"RA_OF_ASC_NODE":285.4458,"ARG_OF_PERICENTER":90.4646,"MEAN_ANOMALY":269.6857,"EPHEMERIS_TYPE":0,"CLASSIFICATION_TYPE":"U","NORAD_CAT_ID":64865,"ELEMENT_SET_NO":999,"REV_AT_EPOCH":3540,"BSTAR":0.00022307,"MEAN_MOTION_DOT":3.161e-5,"MEAN_MOTION_DDOT":0},{"OBJECT_NAME":"DELTA 1 DEB","OBJECT_ID":"1977-065GP","EPOCH":"2026-03-02T03:31:01.237440","MEAN_MOTION":13.03355834,"ECCENTRICITY":0.09264479,"INCLINATION":28.9861,"RA_OF_ASC_NODE":227.6335,"ARG_OF_PERICENTER":184.391,"MEAN_ANOMALY":174.8,"EPHEMERIS_TYPE":0,"CLASSIFICATION_TYPE":"U","NORAD_CAT_ID":39102,"ELEMENT_SET_NO":999,"REV_AT_EPOCH":54183,"BSTAR":0.00017441468,"MEAN_MOTION_DOT":5.88e-6,"MEAN_MOTION_DDOT":0}]
